STARLINK-36861          
1 67934U 26037C   26078.83335648 -.01983315  00000+0 -18151-1 0  9998
2 67934  42.9992 136.5493 0001336 283.7658 175.1752 15.69985397  4823
STARLINK-36860          
1 67935U 26037D   26078.83335648 -.01935960  00000+0 -23996-1 0  9995
2 67935  42.9995 136.7927 0001779 273.2954  87.7681 15.62466511  4829
STARLINK-36848          
1 67936U 26037E   26078.83335648 -.01939108  00000+0 -26487-1 0  9992
2 67936  42.9994 136.8801 0001691 272.0256  53.1552 15.59988976  4820
STARLINK-36370          
1 67937U 26037F   26078.83335648 -.01962376  00000+0 -23517-1 0  9997
2 67937  42.9994 136.7464 0001690 283.5078  96.4038 15.63364339  4828
STARLINK-36371          
1 67938U 26037G   26078.83335648 -.01978476  00000+0 -20273-1 0  9992
2 67938  42.9993 136.5838 0001498 285.0622 159.4872 15.67262194  4825
STARLINK-36246          
1 67939U 26037H   26078.83335648 -.01931493  00000+0 -25562-1 0  9997
2 67939  42.9995 136.8222 0001667 275.5864  73.1614 15.60790058  4743
STARLINK-36907          
1 67940U 26037J   26078.83335648 -.01997972  00000+0 -16657-1 0  9998
2 67940  42.9991 136.4098 0001351 277.2787 236.6719 15.72198403  4821
STARLINK-36927          
1 67941U 26037K   26078.83335648 -.01983601  00000+0 -18617-1 0  9991
2 67941  42.9993 136.4560 0001337 281.4426 213.8412 15.69385829  4822
STARLINK-36914          
1 67942U 26037L   26078.83335648 -.01951046  00000+0 -13823-1 0  9994
2 67942  42.9992 136.3610 0001141 279.7948 253.5843 15.76371896  4825
STARLINK-36851          
1 67943U 26037M   26078.83335648 -.01982555  00000+0 -17849-1 0  9996
2 67943  42.9993 136.4626 0001335 280.3497 212.4747 15.70372509  4820
STARLINK-36892          
1 67944U 26037N   26078.83335648 -.01987232  00000+0 -17294-1 0  9998
2 67944  42.9993 136.4221 0001340 278.6589 230.5227 15.71179305  4824
STARLINK-36908          
1 67945U 26037P   26078.83335648 -.01986499  00000+0 -16678-1 0  9998
2 67945  42.9992 136.3810 0001233 279.9830 245.3082 15.72018813  4821
