CCSDS_OMM_VERS = 2.0
CREATION_DATE  = 
ORIGINATOR     = 

OBJECT_NAME    = STARLINK-36861
OBJECT_ID      = 2026-037C
CENTER_NAME    = EARTH
REF_FRAME      = TEME
TIME_SYSTEM    = UTC
MEAN_ELEMENT_THEORY = SGP/SGP4

EPOCH          = 2026-03-19T20:00:01.999872
MEAN_MOTION    = 15.69985397
ECCENTRICITY   = .00013368
INCLINATION    = 42.9992
RA_OF_ASC_NODE = 136.5493
ARG_OF_PERICENTER = 283.7658
MEAN_ANOMALY   = 175.1752

EPHEMERIS_TYPE = 0
CLASSIFICATION_TYPE = U
NORAD_CAT_ID   = 67934
ELEMENT_SET_NO = 999
REV_AT_EPOCH   = 482
BSTAR          = -.18150975E-1
MEAN_MOTION_DOT = -.1983315E-1
MEAN_MOTION_DDOT = 0

CCSDS_OMM_VERS = 2.0
CREATION_DATE  = 
ORIGINATOR     = 

OBJECT_NAME    = STARLINK-36860
OBJECT_ID      = 2026-037D
CENTER_NAME    = EARTH
REF_FRAME      = TEME
TIME_SYSTEM    = UTC
MEAN_ELEMENT_THEORY = SGP/SGP4

EPOCH          = 2026-03-19T20:00:01.999872
MEAN_MOTION    = 15.62466511
ECCENTRICITY   = .00017797
INCLINATION    = 42.9995
RA_OF_ASC_NODE = 136.7927
ARG_OF_PERICENTER = 273.2954
MEAN_ANOMALY   = 87.7681

EPHEMERIS_TYPE = 0
CLASSIFICATION_TYPE = U
NORAD_CAT_ID   = 67935
ELEMENT_SET_NO = 999
REV_AT_EPOCH   = 482
BSTAR          = -.23996207E-1
MEAN_MOTION_DOT = -.193596E-1
MEAN_MOTION_DDOT = 0

CCSDS_OMM_VERS = 2.0
CREATION_DATE  = 
ORIGINATOR     = 

OBJECT_NAME    = STARLINK-36848
OBJECT_ID      = 2026-037E
CENTER_NAME    = EARTH
REF_FRAME      = TEME
TIME_SYSTEM    = UTC
MEAN_ELEMENT_THEORY = SGP/SGP4

EPOCH          = 2026-03-19T20:00:01.999872
MEAN_MOTION    = 15.59988976
ECCENTRICITY   = .00016914
INCLINATION    = 42.9994
RA_OF_ASC_NODE = 136.8801
ARG_OF_PERICENTER = 272.0256
MEAN_ANOMALY   = 53.1552

EPHEMERIS_TYPE = 0
CLASSIFICATION_TYPE = U
NORAD_CAT_ID   = 67936
ELEMENT_SET_NO = 999
REV_AT_EPOCH   = 482
BSTAR          = -.26487356E-1
MEAN_MOTION_DOT = -.1939108E-1
MEAN_MOTION_DDOT = 0

CCSDS_OMM_VERS = 2.0
CREATION_DATE  = 
ORIGINATOR     = 

OBJECT_NAME    = STARLINK-36370
OBJECT_ID      = 2026-037F
CENTER_NAME    = EARTH
REF_FRAME      = TEME
TIME_SYSTEM    = UTC
MEAN_ELEMENT_THEORY = SGP/SGP4

EPOCH          = 2026-03-19T20:00:01.999872
MEAN_MOTION    = 15.63364339
ECCENTRICITY   = .000169
INCLINATION    = 42.9994
RA_OF_ASC_NODE = 136.7464
ARG_OF_PERICENTER = 283.5078
MEAN_ANOMALY   = 96.4038

EPHEMERIS_TYPE = 0
CLASSIFICATION_TYPE = U
NORAD_CAT_ID   = 67937
ELEMENT_SET_NO = 999
REV_AT_EPOCH   = 482
BSTAR          = -.23516793E-1
MEAN_MOTION_DOT = -.1962376E-1
MEAN_MOTION_DDOT = 0

CCSDS_OMM_VERS = 2.0
CREATION_DATE  = 
ORIGINATOR     = 

OBJECT_NAME    = STARLINK-36371
OBJECT_ID      = 2026-037G
CENTER_NAME    = EARTH
REF_FRAME      = TEME
TIME_SYSTEM    = UTC
MEAN_ELEMENT_THEORY = SGP/SGP4

EPOCH          = 2026-03-19T20:00:01.999872
MEAN_MOTION    = 15.67262194
ECCENTRICITY   = .00014988
INCLINATION    = 42.9993
RA_OF_ASC_NODE = 136.5838
ARG_OF_PERICENTER = 285.0622
MEAN_ANOMALY   = 159.4872

EPHEMERIS_TYPE = 0
CLASSIFICATION_TYPE = U
NORAD_CAT_ID   = 67938
ELEMENT_SET_NO = 999
REV_AT_EPOCH   = 482
BSTAR          = -.2027345E-1
MEAN_MOTION_DOT = -.1978476E-1
MEAN_MOTION_DDOT = 0

CCSDS_OMM_VERS = 2.0
CREATION_DATE  = 
ORIGINATOR     = 

OBJECT_NAME    = STARLINK-36246
OBJECT_ID      = 2026-037H
CENTER_NAME    = EARTH
REF_FRAME      = TEME
TIME_SYSTEM    = UTC
MEAN_ELEMENT_THEORY = SGP/SGP4

EPOCH          = 2026-03-19T20:00:01.999872
MEAN_MOTION    = 15.60790058
ECCENTRICITY   = .00016675
INCLINATION    = 42.9995
RA_OF_ASC_NODE = 136.8222
ARG_OF_PERICENTER = 275.5864
MEAN_ANOMALY   = 73.1614

EPHEMERIS_TYPE = 0
CLASSIFICATION_TYPE = U
NORAD_CAT_ID   = 67939
ELEMENT_SET_NO = 999
REV_AT_EPOCH   = 474
BSTAR          = -.25561742E-1
MEAN_MOTION_DOT = -.1931493E-1
MEAN_MOTION_DDOT = 0

CCSDS_OMM_VERS = 2.0
CREATION_DATE  = 
ORIGINATOR     = 

OBJECT_NAME    = STARLINK-36907
OBJECT_ID      = 2026-037J
CENTER_NAME    = EARTH
REF_FRAME      = TEME
TIME_SYSTEM    = UTC
MEAN_ELEMENT_THEORY = SGP/SGP4

EPOCH          = 2026-03-19T20:00:01.999872
MEAN_MOTION    = 15.72198403
ECCENTRICITY   = .00013518
INCLINATION    = 42.9991
RA_OF_ASC_NODE = 136.4098
ARG_OF_PERICENTER = 277.2787
MEAN_ANOMALY   = 236.6719

EPHEMERIS_TYPE = 0
CLASSIFICATION_TYPE = U
NORAD_CAT_ID   = 67940
ELEMENT_SET_NO = 999
REV_AT_EPOCH   = 482
BSTAR          = -.16656988E-1
MEAN_MOTION_DOT = -.1997972E-1
MEAN_MOTION_DDOT = 0

CCSDS_OMM_VERS = 2.0
CREATION_DATE  = 
ORIGINATOR     = 

OBJECT_NAME    = STARLINK-36927
OBJECT_ID      = 2026-037K
CENTER_NAME    = EARTH
REF_FRAME      = TEME
TIME_SYSTEM    = UTC
MEAN_ELEMENT_THEORY = SGP/SGP4

EPOCH          = 2026-03-19T20:00:01.999872
MEAN_MOTION    = 15.69385829
ECCENTRICITY   = .00013372
INCLINATION    = 42.9993
RA_OF_ASC_NODE = 136.4560
ARG_OF_PERICENTER = 281.4426
MEAN_ANOMALY   = 213.8412

EPHEMERIS_TYPE = 0
CLASSIFICATION_TYPE = U
NORAD_CAT_ID   = 67941
ELEMENT_SET_NO = 999
REV_AT_EPOCH   = 482
BSTAR          = -.18617424E-1
MEAN_MOTION_DOT = -.1983601E-1
MEAN_MOTION_DDOT = 0

CCSDS_OMM_VERS = 2.0
CREATION_DATE  = 
ORIGINATOR     = 

OBJECT_NAME    = STARLINK-36914
OBJECT_ID      = 2026-037L
CENTER_NAME    = EARTH
REF_FRAME      = TEME
TIME_SYSTEM    = UTC
MEAN_ELEMENT_THEORY = SGP/SGP4

EPOCH          = 2026-03-19T20:00:01.999872
MEAN_MOTION    = 15.76371896
ECCENTRICITY   = .00011412
INCLINATION    = 42.9992
RA_OF_ASC_NODE = 136.3610
ARG_OF_PERICENTER = 279.7948
MEAN_ANOMALY   = 253.5843

EPHEMERIS_TYPE = 0
CLASSIFICATION_TYPE = U
NORAD_CAT_ID   = 67942
ELEMENT_SET_NO = 999
REV_AT_EPOCH   = 482
BSTAR          = -.13822926E-1
MEAN_MOTION_DOT = -.1951046E-1
MEAN_MOTION_DDOT = 0

CCSDS_OMM_VERS = 2.0
CREATION_DATE  = 
ORIGINATOR     = 

OBJECT_NAME    = STARLINK-36851
OBJECT_ID      = 2026-037M
CENTER_NAME    = EARTH
REF_FRAME      = TEME
TIME_SYSTEM    = UTC
MEAN_ELEMENT_THEORY = SGP/SGP4

EPOCH          = 2026-03-19T20:00:01.999872
MEAN_MOTION    = 15.70372509
ECCENTRICITY   = .00013358
INCLINATION    = 42.9993
RA_OF_ASC_NODE = 136.4626
ARG_OF_PERICENTER = 280.3497
MEAN_ANOMALY   = 212.4747

EPHEMERIS_TYPE = 0
CLASSIFICATION_TYPE = U
NORAD_CAT_ID   = 67943
ELEMENT_SET_NO = 999
REV_AT_EPOCH   = 482
BSTAR          = -.17848894E-1
MEAN_MOTION_DOT = -.1982555E-1
MEAN_MOTION_DDOT = 0

CCSDS_OMM_VERS = 2.0
CREATION_DATE  = 
ORIGINATOR     = 

OBJECT_NAME    = STARLINK-36892
OBJECT_ID      = 2026-037N
CENTER_NAME    = EARTH
REF_FRAME      = TEME
TIME_SYSTEM    = UTC
MEAN_ELEMENT_THEORY = SGP/SGP4

EPOCH          = 2026-03-19T20:00:01.999872
MEAN_MOTION    = 15.71179305
ECCENTRICITY   = .00013405
INCLINATION    = 42.9993
RA_OF_ASC_NODE = 136.4221
ARG_OF_PERICENTER = 278.6589
MEAN_ANOMALY   = 230.5227

EPHEMERIS_TYPE = 0
CLASSIFICATION_TYPE = U
NORAD_CAT_ID   = 67944
ELEMENT_SET_NO = 999
REV_AT_EPOCH   = 482
BSTAR          = -.17293914E-1
MEAN_MOTION_DOT = -.1987232E-1
MEAN_MOTION_DDOT = 0

CCSDS_OMM_VERS = 2.0
CREATION_DATE  = 
ORIGINATOR     = 

OBJECT_NAME    = STARLINK-36908
OBJECT_ID      = 2026-037P
CENTER_NAME    = EARTH
REF_FRAME      = TEME
TIME_SYSTEM    = UTC
MEAN_ELEMENT_THEORY = SGP/SGP4

EPOCH          = 2026-03-19T20:00:01.999872
MEAN_MOTION    = 15.72018813
ECCENTRICITY   = .00012338
INCLINATION    = 42.9992
RA_OF_ASC_NODE = 136.3810
ARG_OF_PERICENTER = 279.9830
MEAN_ANOMALY   = 245.3082

EPHEMERIS_TYPE = 0
CLASSIFICATION_TYPE = U
NORAD_CAT_ID   = 67945
ELEMENT_SET_NO = 999
REV_AT_EPOCH   = 482
BSTAR          = -.16677689E-1
MEAN_MOTION_DOT = -.1986499E-1
MEAN_MOTION_DDOT = 0

